start=new Date('2021-12-22T00:00:00.000Z').valueOf();
sats=[{"DECAY_DATE":null,"OBJECT_NAME":"STARLINK-1113","REV_AT_EPOCH":"10857","TLE_LINE1":"1 44926U 20001N   21355.49529501  .00003943  00000-0  28945-3 0  9999","MEAN_MOTION_DDOT":"0.0000000000000","PERIOD":"95.643","OBJECT_TYPE":"PAYLOAD","REF_FRAME":"TEME","BSTAR":"0.00028945000000","INCLINATION":"52.9993","TIME_SYSTEM":"UTC","LAUNCH_DATE":"2020-01-07","RCS_SIZE":"LARGE","RA_OF_ASC_NODE":"56.3346","CENTER_NAME":"EARTH","APOAPSIS":"550.392","MEAN_MOTION_DOT":"0.00003943","COUNTRY_CODE":"US","FILE":"3246489","SEMIMAJOR_AXIS":"6927.802","CLASSIFICATION_TYPE":"U","ECCENTRICITY":"0.00010460","ELEMENT_SET_NO":"999","EPHEMERIS_TYPE":"0","OBJECT_ID":"2020-001N","MEAN_MOTION":"15.05599845","NORAD_CAT_ID":"44926","PERIAPSIS":"548.942","MEAN_ELEMENT_THEORY":"SGP4","EPOCH":"2021-12-21T11:53:13.488864","ARG_OF_PERICENTER":"73.2151","GP_ID":"192147108","MEAN_ANOMALY":"286.8951","SITE":"AFETR","TLE_LINE2":"2 44926  52.9993  56.3346 0001046  73.2151 286.8951 15.05599845108572"},{"REF_FRAME":"TEME","OBJECT_TYPE":"PAYLOAD","TLE_LINE1":"1 44927U 20001P   21355.59306107  .00000845  00000-0  75618-4 0  9994","PERIOD":"95.592","MEAN_MOTION_DDOT":"0.0000000000000","REV_AT_EPOCH":"10787","OBJECT_NAME":"STARLINK-1114","DECAY_DATE":null,"APOAPSIS":"548.085","MEAN_MOTION_DOT":"0.00000845","RCS_SIZE":"LARGE","CENTER_NAME":"EARTH","RA_OF_ASC_NODE":"55.8881","INCLINATION":"53.0549","BSTAR":"0.00007561800000","LAUNCH_DATE":"2020-01-07","TIME_SYSTEM":"UTC","ECCENTRICITY":"0.00012840","SEMIMAJOR_AXIS":"6925.330","FILE":"3246489","CLASSIFICATION_TYPE":"U","COUNTRY_CODE":"US","MEAN_ANOMALY":"280.0734","SITE":"AFETR","TLE_LINE2":"2 44927  53.0549  55.8881 0001284  80.0400 280.0734 15.06405924107879","MEAN_ELEMENT_THEORY":"SGP4","EPOCH":"2021-12-21T14:14:00.476448","GP_ID":"192145358","ARG_OF_PERICENTER":"80.0400","MEAN_MOTION":"15.06405924","OBJECT_ID":"2020-001P","PERIAPSIS":"546.306","NORAD_CAT_ID":"44927","ELEMENT_SET_NO":"999","EPHEMERIS_TYPE":"0"},{"TLE_LINE1":"1 44928U 20001Q   21355.52302525  .00000124  00000-0  27227-4 0  9991","PERIOD":"95.592","MEAN_MOTION_DDOT":"0.0000000000000","REF_FRAME":"TEME","OBJECT_TYPE":"PAYLOAD","DECAY_DATE":null,"REV_AT_EPOCH":"10786","OBJECT_NAME":"STARLINK-1119","RCS_SIZE":"LARGE","CENTER_NAME":"EARTH","RA_OF_ASC_NODE":"56.2192","APOAPSIS":"548.064","MEAN_MOTION_DOT":"0.00000124","INCLINATION":"53.0563","BSTAR":"0.00002722700000","LAUNCH_DATE":"2020-01-07","TIME_SYSTEM":"UTC","SEMIMAJOR_AXIS":"6925.329","FILE":"3246489","CLASSIFICATION_TYPE":"U","ECCENTRICITY":"0.00012570","COUNTRY_CODE":"US","MEAN_ELEMENT_THEORY":"SGP4","EPOCH":"2021-12-21T12:33:09.381600","GP_ID":"192145608","ARG_OF_PERICENTER":"81.2735","MEAN_ANOMALY":"278.8397","SITE":"AFETR","TLE_LINE2":"2 44928  53.0563  56.2192 0001257  81.2735 278.8397 15.06406496107864","ELEMENT_SET_NO":"999","EPHEMERIS_TYPE":"0","MEAN_MOTION":"15.06406496","OBJECT_ID":"2020-001Q","PERIAPSIS":"546.323","NORAD_CAT_ID":"44928"},{"MEAN_ELEMENT_THEORY":"SGP4","EPOCH":"2021-12-21T15:23:00.151872","ARG_OF_PERICENTER":"85.4652","GP_ID":"192176770","MEAN_ANOMALY":"274.6482","SITE":"AFETR","TLE_LINE2":"2 44929  53.0541  55.6711 0001268  85.4652 274.6482 15.06409263107872","ELEMENT_SET_NO":"999","EPHEMERIS_TYPE":"0","OBJECT_ID":"2020-001R","MEAN_MOTION":"15.06409263","NORAD_CAT_ID":"44929","PERIAPSIS":"546.307","FILE":"3246784","SEMIMAJOR_AXIS":"6925.320","CLASSIFICATION_TYPE":"U","ECCENTRICITY":"0.00012680","COUNTRY_CODE":"US","RCS_SIZE":"LARGE","RA_OF_ASC_NODE":"55.6711","CENTER_NAME":"EARTH","APOAPSIS":"548.063","MEAN_MOTION_DOT":"0.00001728","BSTAR":"0.00013484000000","INCLINATION":"53.0541","TIME_SYSTEM":"UTC","LAUNCH_DATE":"2020-01-07","TLE_LINE1":"1 44929U 20001R   21355.64097398  .00001728  00000-0  13484-3 0  9994","MEAN_MOTION_DDOT":"0.0000000000000","PERIOD":"95.592","OBJECT_TYPE":"PAYLOAD","REF_FRAME":"TEME","DECAY_DATE":null,"OBJECT_NAME":"STARLINK-1121","REV_AT_EPOCH":"10787"},{"GP_ID":"192176018","ARG_OF_PERICENTER":"84.0028","MEAN_ELEMENT_THEORY":"SGP4","EPOCH":"2021-12-21T16:10:46.439040","SITE":"AFETR","TLE_LINE2":"2 44930  53.0534  55.5325 0001312  84.0028 276.1111 15.06406036107880","MEAN_ANOMALY":"276.1111","EPHEMERIS_TYPE":"0","ELEMENT_SET_NO":"999","PERIAPSIS":"546.286","NORAD_CAT_ID":"44930","MEAN_MOTION":"15.06406036","OBJECT_ID":"2020-001S","CLASSIFICATION_TYPE":"U","SEMIMAJOR_AXIS":"6925.330","FILE":"3246784","ECCENTRICITY":"0.00013120","COUNTRY_CODE":"US","CENTER_NAME":"EARTH","RA_OF_ASC_NODE":"55.5325","RCS_SIZE":"LARGE","MEAN_MOTION_DOT":"0.00000311","APOAPSIS":"548.104","LAUNCH_DATE":"2020-01-07","TIME_SYSTEM":"UTC","INCLINATION":"53.0534","BSTAR":"0.00003975100000","PERIOD":"95.592","MEAN_MOTION_DDOT":"0.0000000000000","TLE_LINE1":"1 44930U 20001S   21355.67414860  .00000311  00000-0  39751-4 0  9999","REF_FRAME":"TEME","OBJECT_TYPE":"PAYLOAD","DECAY_DATE":null,"REV_AT_EPOCH":"10788","OBJECT_NAME":"STARLINK-1123"},{"ECCENTRICITY":"0.00015430","CLASSIFICATION_TYPE":"U","SEMIMAJOR_AXIS":"6916.178","FILE":"3246784","COUNTRY_CODE":"US","TLE_LINE2":"2 44931  53.0538  55.0291 0001543  59.5715 300.5428 15.09397030108631","SITE":"AFETR","MEAN_ANOMALY":"300.5428","GP_ID":"192176268","ARG_OF_PERICENTER":"59.5715","EPOCH":"2021-12-21T16:03:49.305888","MEAN_ELEMENT_THEORY":"SGP4","PERIAPSIS":"536.976","NORAD_CAT_ID":"44931","MEAN_MOTION":"15.09397030","OBJECT_ID":"2020-001T","EPHEMERIS_TYPE":"0","ELEMENT_SET_NO":"999","REF_FRAME":"TEME","OBJECT_TYPE":"PAYLOAD","PERIOD":"95.402","MEAN_MOTION_DDOT":"0.0000000000000","TLE_LINE1":"1 44931U 20001T   21355.66932067  .00010861  00000-0  68891-3 0  9990","REV_AT_EPOCH":"10863","OBJECT_NAME":"STARLINK-1128","DECAY_DATE":null,"MEAN_MOTION_DOT":"0.00010861","APOAPSIS":"539.110","CENTER_NAME":"EARTH","RA_OF_ASC_NODE":"55.0291","RCS_SIZE":"LARGE","LAUNCH_DATE":"2020-01-07","TIME_SYSTEM":"UTC","INCLINATION":"53.0538","BSTAR":"0.00068891000000"},{"BSTAR":"-0.00007808500000","INCLINATION":"53.0541","TIME_SYSTEM":"UTC","LAUNCH_DATE":"2020-01-07","RCS_SIZE":"LARGE","RA_OF_ASC_NODE":"55.5861","CENTER_NAME":"EARTH","APOAPSIS":"548.011","MEAN_MOTION_DOT":"-0.00001445","DECAY_DATE":null,"OBJECT_NAME":"STARLINK-1130","REV_AT_EPOCH":"10911","TLE_LINE1":"1 44932U 20001U   21355.66309726 -.00001445  00000-0 -78085-4 0  9998","MEAN_MOTION_DDOT":"0.0000000000000","PERIOD":"95.591","OBJECT_TYPE":"PAYLOAD","REF_FRAME":"TEME","ELEMENT_SET_NO":"999","EPHEMERIS_TYPE":"0","OBJECT_ID":"2020-001U","MEAN_MOTION":"15.06411737","NORAD_CAT_ID":"44932","PERIAPSIS":"546.344","EPOCH":"2021-12-21T15:54:51.603264","MEAN_ELEMENT_THEORY":"SGP4","ARG_OF_PERICENTER":"84.8630","GP_ID":"192177017","MEAN_ANOMALY":"275.2496","TLE_LINE2":"2 44932  53.0541  55.5861 0001204  84.8630 275.2496 15.06411737109110","SITE":"AFETR","COUNTRY_CODE":"US","FILE":"3246784","SEMIMAJOR_AXIS":"6925.313","CLASSIFICATION_TYPE":"U","ECCENTRICITY":"0.00012040"},{"DECAY_DATE":null,"OBJECT_NAME":"STARLINK-1144","REV_AT_EPOCH":"10917","TLE_LINE1":"1 44933U 20001V   21355.68889877  .00000797  00000-0  72369-4 0  9997","MEAN_MOTION_DDOT":"0.0000000000000","PERIOD":"95.592","OBJECT_TYPE":"PAYLOAD","REF_FRAME":"TEME","BSTAR":"0.00007236900000","INCLINATION":"53.0550","TIME_SYSTEM":"UTC","LAUNCH_DATE":"2020-01-07","RCS_SIZE":"LARGE","RA_OF_ASC_NODE":"55.4664","CENTER_NAME":"EARTH","APOAPSIS":"548.318","MEAN_MOTION_DOT":"0.00000797","COUNTRY_CODE":"US","FILE":"3246784","SEMIMAJOR_AXIS":"6925.351","CLASSIFICATION_TYPE":"U","ECCENTRICITY":"0.00015910","ELEMENT_SET_NO":"999","EPHEMERIS_TYPE":"0","OBJECT_ID":"2020-001V","MEAN_MOTION":"15.06399114","NORAD_CAT_ID":"44933","PERIAPSIS":"546.114","MEAN_ELEMENT_THEORY":"SGP4","EPOCH":"2021-12-21T16:32:00.853728","ARG_OF_PERICENTER":"79.3928","GP_ID":"192177270","MEAN_ANOMALY":"280.7240","SITE":"AFETR","TLE_LINE2":"2 44933  53.0550  55.4664 0001591  79.3928 280.7240 15.06399114109177"},{"LAUNCH_DATE":"2020-01-07","TIME_SYSTEM":"UTC","INCLINATION":"53.0547","BSTAR":"0.00019618000000","CENTER_NAME":"EARTH","RA_OF_ASC_NODE":"36.3000","RCS_SIZE":"LARGE","MEAN_MOTION_DOT":"0.00002642","APOAPSIS":"548.167","DECAY_DATE":null,"REV_AT_EPOCH":"10813","OBJECT_NAME":"STARLINK-1071","PERIOD":"95.592","MEAN_MOTION_DDOT":"0.0000000000000","TLE_LINE1":"1 44934U 20001W   21355.50276222  .00002642  00000-0  19618-3 0  9991","REF_FRAME":"TEME","OBJECT_TYPE":"PAYLOAD","EPHEMERIS_TYPE":"0","ELEMENT_SET_NO":"999","PERIAPSIS":"546.241","NORAD_CAT_ID":"44934","MEAN_MOTION":"15.06403170","OBJECT_ID":"2020-001W","GP_ID":"192147109","ARG_OF_PERICENTER":"90.4215","EPOCH":"2021-12-21T12:03:58.655808","MEAN_ELEMENT_THEORY":"SGP4","SITE":"AFETR","TLE_LINE2":"2 44934  53.0547  36.3000 0001391  90.4215 269.6933 15.06403170108135","MEAN_ANOMALY":"269.6933","COUNTRY_CODE":"US","CLASSIFICATION_TYPE":"U","SEMIMAJOR_AXIS":"6925.339","FILE":"3246489","ECCENTRICITY":"0.00013910"},{"OBJECT_ID":"2020-001Z","MEAN_MOTION":"15.06405586","NORAD_CAT_ID":"44937","PERIAPSIS":"546.202","ELEMENT_SET_NO":"999","EPHEMERIS_TYPE":"0","MEAN_ANOMALY":"293.8130","SITE":"AFETR","TLE_LINE2":"2 44937  53.0541  35.8083 0001436  66.3009 293.8130 15.06405586108153","EPOCH":"2021-12-21T14:43:12.188928","MEAN_ELEMENT_THEORY":"SGP4","ARG_OF_PERICENTER":"66.3009","GP_ID":"192175769","COUNTRY_CODE":"US","ECCENTRICITY":"0.00014360","FILE":"3246784","SEMIMAJOR_AXIS":"6925.331","CLASSIFICATION_TYPE":"U","BSTAR":"0.00007592900000","INCLINATION":"53.0541","TIME_SYSTEM":"UTC","LAUNCH_DATE":"2020-01-07","APOAPSIS":"548.191","MEAN_MOTION_DOT":"0.00000850","RCS_SIZE":"LARGE","RA_OF_ASC_NODE":"35.8083","CENTER_NAME":"EARTH","OBJECT_NAME":"STARLINK-1079","REV_AT_EPOCH":"10815","DECAY_DATE":null,"OBJECT_TYPE":"PAYLOAD","REF_FRAME":"TEME","TLE_LINE1":"1 44937U 20001Z   21355.61333552  .00000850  00000-0  75929-4 0  9993","MEAN_MOTION_DDOT":"0.0000000000000","PERIOD":"95.592"}];
